{
  "type": "FeatureCollection",
  "features": [
    {
      "type": "Feature",
      "properties": {
        "norad_id": 24946,
        "name": "IRIDIUM 33",
        "group": "iridium-33-debris",
        "lat": -35.34238164898026,
        "lon": -112.1695080399034,
        "alt_km": 776.9285438839988,
        "timestamp": "2025-12-19T18:58:41.970918+00:00",
        "meta_object_name": "IRIDIUM 33",
        "meta_object_id": "1997-051C",
        "meta_epoch": "2025-12-19T04:35:25.287360",
        "meta_mean_motion": 14.35041788,
        "meta_eccentricity": 0.00078022,
        "meta_inclination": 86.3867,
        "meta_ra_of_asc_node": 65.5138,
        "meta_arg_of_pericenter": 178.4529,
        "meta_mean_anomaly": 181.6693,
        "meta_ephemeris_type": 0,
        "meta_classification_type": "U",
        "meta_norad_cat_id": 24946,
        "meta_element_set_no": 999,
        "meta_rev_at_epoch": 47927,
        "meta_bstar": 8.9488594e-05,
        "meta_mean_motion_dot": 2.75e-06,
        "meta_mean_motion_ddot": 0,
        "tle_line1": "1 24946U 97051C   25353.19126490  .00000275  00000+0  89489-4 0  9992",
        "tle_line2": "2 24946  86.3867  65.5138 0007802 178.4529 181.6693 14.35041788479270"
      },
      "geometry": {
        "type": "Point",
        "coordinates": [
          -112.1695080399034,
          -35.34238164898026
        ]
      }
    },
    {
      "type": "Feature",
      "properties": {
        "norad_id": 33773,
        "name": "IRIDIUM 33 DEB",
        "group": "iridium-33-debris",
        "lat": 20.441143224797447,
        "lon": 58.946005571433545,
        "alt_km": 750.1899421963863,
        "timestamp": "2025-12-19T18:58:41.970944+00:00",
        "meta_object_name": "IRIDIUM 33 DEB",
        "meta_object_id": "1997-051L",
        "meta_epoch": "2025-12-19T05:34:19.132896",
        "meta_mean_motion": 14.43270064,
        "meta_eccentricity": 0.00130039,
        "meta_inclination": 86.4004,
        "meta_ra_of_asc_node": 57.8383,
        "meta_arg_of_pericenter": 127.5412,
        "meta_mean_anomaly": 232.6973,
        "meta_ephemeris_type": 0,
        "meta_classification_type": "U",
        "meta_norad_cat_id": 33773,
        "meta_element_set_no": 999,
        "meta_rev_at_epoch": 88441,
        "meta_bstar": 0.00021422599,
        "meta_mean_motion_dot": 7.42e-06,
        "meta_mean_motion_ddot": 0,
        "tle_line1": "1 33773U 97051L   25353.23216589  .00000742  00000+0  21423-3 0  9996",
        "tle_line2": "2 33773  86.4004  57.8383 0013003 127.5412 232.6973 14.43270064884418"
      },
      "geometry": {
        "type": "Point",
        "coordinates": [
          58.946005571433545,
          20.441143224797447
        ]
      }
    },
    {
      "type": "Feature",
      "properties": {
        "norad_id": 33775,
        "name": "IRIDIUM 33 DEB",
        "group": "iridium-33-debris",
        "lat": 58.50559038581812,
        "lon": 52.502254597009475,
        "alt_km": 745.187820825151,
        "timestamp": "2025-12-19T18:58:41.970959+00:00",
        "meta_object_name": "IRIDIUM 33 DEB",
        "meta_object_id": "1997-051N",
        "meta_epoch": "2025-12-19T05:41:18.511584",
        "meta_mean_motion": 14.41481598,
        "meta_eccentricity": 0.00149197,
        "meta_inclination": 86.363,
        "meta_ra_of_asc_node": 46.7797,
        "meta_arg_of_pericenter": 135.0878,
        "meta_mean_anomaly": 292.0946,
        "meta_ephemeris_type": 0,
        "meta_classification_type": "U",
        "meta_norad_cat_id": 33775,
        "meta_element_set_no": 999,
        "meta_rev_at_epoch": 88234,
        "meta_bstar": 0.00022883463,
        "meta_mean_motion_dot": 7.63e-06,
        "meta_mean_motion_ddot": 0,
        "tle_line1": "1 33775U 97051N   25353.23701981  .00000763  00000+0  22883-3 0  9997",
        "tle_line2": "2 33775  86.3630  46.7797 0014919 135.0878 292.0946 14.41481598882341"
      },
      "geometry": {
        "type": "Point",
        "coordinates": [
          52.502254597009475,
          58.50559038581812
        ]
      }
    },
    {
      "type": "Feature",
      "properties": {
        "norad_id": 33776,
        "name": "IRIDIUM 33 DEB",
        "group": "iridium-33-debris",
        "lat": -26.769269740477725,
        "lon": -100.36682604612923,
        "alt_km": 761.7275435331685,
        "timestamp": "2025-12-19T18:58:41.970972+00:00",
        "meta_object_name": "IRIDIUM 33 DEB",
        "meta_object_id": "1997-051P",
        "meta_epoch": "2025-12-19T04:55:47.968320",
        "meta_mean_motion": 14.38245973,
        "meta_eccentricity": 0.00151018,
        "meta_inclination": 86.4035,
        "meta_ra_of_asc_node": 78.0608,
        "meta_arg_of_pericenter": 169.4849,
        "meta_mean_anomaly": 248.2984,
        "meta_ephemeris_type": 0,
        "meta_classification_type": "U",
        "meta_norad_cat_id": 33776,
        "meta_element_set_no": 999,
        "meta_rev_at_epoch": 88175,
        "meta_bstar": 0.00020483823,
        "meta_mean_motion_dot": 6.43e-06,
        "meta_mean_motion_ddot": 0,
        "tle_line1": "1 33776U 97051P   25353.20541630  .00000643  00000+0  20484-3 0  9990",
        "tle_line2": "2 33776  86.4035  78.0608 0015101 169.4849 248.2984 14.38245973881754"
      },
      "geometry": {
        "type": "Point",
        "coordinates": [
          -100.36682604612923,
          -26.769269740477725
        ]
      }
    },
    {
      "type": "Feature",
      "properties": {
        "norad_id": 33777,
        "name": "IRIDIUM 33 DEB",
        "group": "iridium-33-debris",
        "lat": 74.80221742286246,
        "lon": 45.62104184992799,
        "alt_km": 703.3943130999987,
        "timestamp": "2025-12-19T18:58:41.970984+00:00",
        "meta_object_name": "IRIDIUM 33 DEB",
        "meta_object_id": "1997-051Q",
        "meta_epoch": "2025-12-19T03:47:07.455552",
        "meta_mean_motion": 14.5565724,
        "meta_eccentricity": 0.00056471,
        "meta_inclination": 86.3778,
        "meta_ra_of_asc_node": 32.4117,
        "meta_arg_of_pericenter": 220.5643,
        "meta_mean_anomaly": 139.5144,
        "meta_ephemeris_type": 0,
        "meta_classification_type": "U",
        "meta_norad_cat_id": 33777,
        "meta_element_set_no": 999,
        "meta_rev_at_epoch": 88627,
        "meta_bstar": 0.00061273741,
        "meta_mean_motion_dot": 2.696e-05,
        "meta_mean_motion_ddot": 0,
        "tle_line1": "1 33777U 97051Q   25353.15772518  .00002696  00000+0  61274-3 0  9998",
        "tle_line2": "2 33777  86.3778  32.4117 0005647 220.5643 139.5144 14.55657240886277"
      },
      "geometry": {
        "type": "Point",
        "coordinates": [
          45.62104184992799,
          74.80221742286246
        ]
      }
    },
    {
      "type": "Feature",
      "properties": {
        "norad_id": 33850,
        "name": "IRIDIUM 33 DEB",
        "group": "iridium-33-debris",
        "lat": 56.62158617378914,
        "lon": 32.721161985490006,
        "alt_km": 744.8718345130465,
        "timestamp": "2025-12-19T18:58:41.970997+00:00",
        "meta_object_name": "IRIDIUM 33 DEB",
        "meta_object_id": "1997-051T",
        "meta_epoch": "2025-12-19T04:01:16.980096",
        "meta_mean_motion": 14.42160199,
        "meta_eccentricity": 0.00128264,
        "meta_inclination": 86.3412,
        "meta_ra_of_asc_node": 27.4157,
        "meta_arg_of_pericenter": 141.7137,
        "meta_mean_anomaly": 281.8035,
        "meta_ephemeris_type": 0,
        "meta_classification_type": "U",
        "meta_norad_cat_id": 33850,
        "meta_element_set_no": 999,
        "meta_rev_at_epoch": 88245,
        "meta_bstar": 0.00027148947,
        "meta_mean_motion_dot": 9.14e-06,
        "meta_mean_motion_ddot": 0,
        "tle_line1": "1 33850U 97051T   25353.16755764  .00000914  00000+0  27149-3 0  9999",
        "tle_line2": "2 33850  86.3412  27.4157 0012826 141.7137 281.8035 14.42160199882455"
      },
      "geometry": {
        "type": "Point",
        "coordinates": [
          32.721161985490006,
          56.62158617378914
        ]
      }
    },
    {
      "type": "Feature",
      "properties": {
        "norad_id": 33853,
        "name": "IRIDIUM 33 DEB",
        "group": "iridium-33-debris",
        "lat": 66.71269800377745,
        "lon": -3.924504098054378,
        "alt_km": 1015.9101168471125,
        "timestamp": "2025-12-19T18:58:41.971017+00:00",
        "meta_object_name": "IRIDIUM 33 DEB",
        "meta_object_id": "1997-051W",
        "meta_epoch": "2025-12-19T00:02:12.626592",
        "meta_mean_motion": 13.99096092,
        "meta_eccentricity": 0.02071458,
        "meta_inclination": 85.9999,
        "meta_ra_of_asc_node": 347.0651,
        "meta_arg_of_pericenter": 216.4718,
        "meta_mean_anomaly": 199.1935,
        "meta_ephemeris_type": 0,
        "meta_classification_type": "U",
        "meta_norad_cat_id": 33853,
        "meta_element_set_no": 999,
        "meta_rev_at_epoch": 85433,
        "meta_bstar": 0.0012839679,
        "meta_mean_motion_dot": 2.25e-05,
        "meta_mean_motion_ddot": 0,
        "tle_line1": "1 33853U 97051W   25353.00153503  .00002250  00000+0  12840-2 0  9994",
        "tle_line2": "2 33853  85.9999 347.0651 0207145 216.4718 199.1935 13.99096092854335"
      },
      "geometry": {
        "type": "Point",
        "coordinates": [
          -3.924504098054378,
          66.71269800377745
        ]
      }
    }
  ]
}